{
  "last_updated": "2026-04-30T06:00:02.928332",
  "satellites": {
    "98592": {
      "name": "DUTHSat-2",
      "norad_id": "98592",
      "tle": "1 64530U 25135C   26119.87809050  .00013138  00000-0  51700-3 0  9992\n2 64530  97.4560 235.8688 0004515  15.5341 344.6035 15.25757810 47563",
      "epoch": "2026-04-29T21:04:27.019200",
      "fetched_at": "2026-04-30T06:00:03.045996",
      "source": "satnogs"
    },
    "98530": {
      "name": "LAMARR",
      "norad_id": "98530",
      "tle": "1 66673U 25276H   26026.90917087  .00034524  00000-0  16680-2 0  9998\n2 66673  97.4301 102.8338 0007597 141.5941 218.5835 15.18529012  8972",
      "epoch": "2026-01-26T21:49:12.363168",
      "fetched_at": "2026-01-28T06:00:02.884758",
      "source": "satnogs",
      "note": "Using previous TLE (fetch/manual failed today)"
    },
    "98529": {
      "name": "DIRAC",
      "norad_id": "98529",
      "tle": "1 66681U 25276R   26026.63281774  .00024563  00000-0  11745-2 0  9993\n2 66681  97.4280 102.5712 0006320 148.4115 211.7500 15.18972786  8932",
      "epoch": "2026-01-26T15:11:15.452736",
      "fetched_at": "2026-01-28T06:00:02.937152",
      "source": "satnogs",
      "note": "Using previous TLE (fetch/manual failed today)"
    },
    "98518": {
      "name": "MICE-1",
      "norad_id": "98518",
      "tle": "1 66684U 25276U   26119.95910867  .00004228  00000-0  20619-3 0  9993\n2 66684  97.4284 194.3999 0006415 148.4833 211.6787 15.18836485 23092",
      "epoch": "2026-04-29T23:01:06.989088",
      "fetched_at": "2026-04-30T06:00:03.213326",
      "source": "satnogs"
    },
    "68416": {
      "name": "PeakSat",
      "norad_id": "68416",
      "tle": "1 68416U 26067A   26119.94232876  .00007977  00000-0  38592-3 0  9996\n2 68416  97.4515  79.1586 0004244  86.6212 273.5508 15.18848872  4627",
      "epoch": "2026-04-29T22:36:57.204864",
      "fetched_at": "2026-04-30T06:00:03.265846",
      "source": "satnogs"
    },
    "98370": {
      "name": "OptiSat",
      "norad_id": "98370",
      "tle": "1 69696U 69696    26089.46895426  .00000000  00000-0  00000-0 0 00004\n2 69696 097.4414 038.3720 0003145 156.7651 191.1423 15.18459822000011",
      "epoch": "2026-03-30T11:15:17.648064",
      "fetched_at": "2026-04-17T12:47:18.541523",
      "source": "manual"
    },
    "68468": {
      "name": "ERMIS-1",
      "norad_id": "68468",
      "tle": "1 68468U 26067BE  26119.91601807  .00009674  00000-0  49375-3 0  9991\n2 68468  97.4524  79.0477 0005514 209.3132 150.7792 15.16912929  4611",
      "epoch": "2026-04-29T21:59:03.961248",
      "fetched_at": "2026-04-30T06:00:03.330962",
      "source": "satnogs"
    },
    "68420": {
      "name": "ERMIS-2",
      "norad_id": "68420",
      "tle": "1 68420U 26067E   26119.94357576  .00011403  00000-0  54976-3 0  9999\n2 68420  97.4454  79.1356 0003582  77.5958 282.5677 15.18868191  4622",
      "epoch": "2026-04-29T22:38:44.945664",
      "fetched_at": "2026-04-30T06:00:03.385945",
      "source": "satnogs"
    },
    "98367": {
      "name": "ERMIS-3",
      "norad_id": "98367",
      "tle": "1 68425U 26067K   26119.88610485  .00006131  00000-0  30209-3 0  9993\n2 68425  97.4557  79.0975 0003202 112.9929 247.1643 15.18307937  4613",
      "epoch": "2026-04-29T21:15:59.459040",
      "fetched_at": "2026-04-30T06:00:03.451931",
      "source": "satnogs"
    }
  },
  "fetch_log": []
}